{"fetched_at":"2026-03-29T16:36:15Z","count":15609,"tles":[{"name":"STARLINK-36877","line1":"1 67896U 26035T   26087.77760006  .00138825  00000+0  91636-3 0  9992","line2":"2 67896  97.2857  21.1989 0001252  63.5216 296.6177 15.75195108  6858","category":"Starlink"}]}