{
  "norad_id": 67896,
  "name": "STARLINK-36877",
  "history": [
    {
      "epoch": "2026-03-28T18:39:44.645184Z",
      "apogee_km": 344.91806064451157,
      "perigee_km": 343.23401183467377,
      "latitude_deg": -5.187577202235299e-05,
      "longitude_deg": -84.93028847648549,
      "height_km": 346.86705965855316,
      "semi_major_axis_km": 6722.213036239593,
      "eccentricity": 0.00012526,
      "inclination_deg": 97.2857,
      "raan_deg": 21.1989,
      "arg_perigee_deg": 63.5216,
      "mean_anomaly_deg": 296.6177,
      "mean_motion_rev_day": 15.75195108
    }
  ]
}